[
  {
    "name": "STARLINK-37758",
    "noradId": "69219",
    "line1": "1 69219U 26115J   26167.25002315 -.02470699  00000+0 -38436-1 0  9995",
    "line2": "2 69219  97.2843 184.6271 0001260  88.9838 298.2577 15.57624401  4542"
  },
  {
    "name": "STARLINK-37201",
    "noradId": "69220",
    "line1": "1 69220U 26115K   26167.25002315 -.02519811  00000+0 -39757-1 0  9994",
    "line2": "2 69220  97.2845 184.6260 0001256  93.1376 288.0976 15.57329902  4542"
  },
  {
    "name": "STARLINK-37728",
    "noradId": "69221",
    "line1": "1 69221U 26115L   26167.25002315 -.02487003  00000+0 -41627-1 0  9991",
    "line2": "2 69221  97.2841 184.6193 0001184  86.8090 280.0681 15.55696921  4547"
  },
  {
    "name": "STARLINK-37760",
    "noradId": "69222",
    "line1": "1 69222U 26115M   26167.25002315 -.02547291  00000+0 -37958-1 0  9990",
    "line2": "2 69222  97.2841 184.6345 0001184  80.5181 322.6622 15.58885351  4547"
  },
  {
    "name": "STARLINK-37759",
    "noradId": "69223",
    "line1": "1 69223U 26115N   26167.25002315  .00008147  00000+0  15139-3 0  9998",
    "line2": "2 69223  97.2845 184.5351 0001059 103.1832  76.4455 15.49171567  4549"
  },
  {
    "name": "STARLINK-37725",
    "noradId": "69224",
    "line1": "1 69224U 26115P   26167.25002315  .00009054  00000+0  16812-3 0  9996",
    "line2": "2 69224  97.2841 184.5397 0001243  95.6856  96.6053 15.49159300  4541"
  },
  {
    "name": "STARLINK-37770",
    "noradId": "69225",
    "line1": "1 69225U 26115Q   26167.25002315 -.02527763  00000+0 -36159-1 0  9997",
    "line2": "2 69225  97.2847 184.6444 0001296  65.4060   4.1268 15.59920284  4542"
  },
  {
    "name": "STARLINK-37736",
    "noradId": "69226",
    "line1": "1 69226U 26115R   26167.25002315 -.02500460  00000+0 -37160-1 0  9996",
    "line2": "2 69226  97.2842 184.6342 0001106  87.5304 316.8960 15.58880719  4540"
  },
  {
    "name": "STARLINK-37737",
    "noradId": "69227",
    "line1": "1 69227U 26115S   26167.25002315 -.02486780  00000+0 -34564-1 0  9990",
    "line2": "2 69227  97.2849 184.6540 0001492  75.0218  17.2056 15.60600230  4563"
  },
  {
    "name": "STARLINK-37618",
    "noradId": "69228",
    "line1": "1 69228U 26115T   26167.25002315 -.00006856  00000+0 -12450-3 0  9993",
    "line2": "2 69228  97.2841 184.5314 0001696  85.1459  87.8585 15.49187859  4541"
  },
  {
    "name": "STARLINK-37679",
    "noradId": "69229",
    "line1": "1 69229U 26115U   26167.25002315  .00010973  00000+0  20320-3 0  9992",
    "line2": "2 69229  97.2842 184.5381 0000927  91.8792  95.5692 15.49181150  4540"
  },
  {
    "name": "STARLINK-37746",
    "noradId": "69230",
    "line1": "1 69230U 26115V   26167.25002315 -.00007552  00000+0 -13728-3 0  9999",
    "line2": "2 69230  97.2842 184.5187 0000793 143.1446 358.6489 15.49200911  4548"
  },
  {
    "name": "STARLINK-37557",
    "noradId": "69231",
    "line1": "1 69231U 26115W   26167.25002315  .00023603  00000+0  43460-3 0  9999",
    "line2": "2 69231  97.2837 184.4620 0001635  99.8809 263.2234 15.49171220  4549"
  },
  {
    "name": "STARLINK-37745",
    "noradId": "69232",
    "line1": "1 69232U 26115X   26167.25002315 -.02511559  00000+0 -32965-1 0  9992",
    "line2": "2 69232  97.2850 184.6760 0001877  67.2740  76.1219 15.62108960  4543"
  },
  {
    "name": "STARLINK-37739",
    "noradId": "69233",
    "line1": "1 69233U 26115Y   26167.25002315 -.00002230  00000+0 -39366-4 0  9997",
    "line2": "2 69233  97.2843 184.5156 0001379  63.9618  67.1257 15.49175083  4545"
  },
  {
    "name": "STARLINK-37755",
    "noradId": "69234",
    "line1": "1 69234U 26115Z   26167.24244679  .00125722  00000+0  83022-3 0  9995",
    "line2": "2 69234  97.2827 184.6230 0001129 111.2754 248.8632 15.75223330  4535"
  },
  {
    "name": "STARLINK-37665",
    "noradId": "69238",
    "line1": "1 69238U 26117A   26167.23462272  .00204639  00000+0  96288-3 0  9994",
    "line2": "2 69238  53.1581 248.4054 0000988  48.0849 312.0258 15.82033364  2826"
  },
  {
    "name": "STARLINK-37558",
    "noradId": "69239",
    "line1": "1 69239U 26117B   26167.23366792  .00152121  00000+0  72387-3 0  9997",
    "line2": "2 69239  53.1582 248.3986 0001668  82.6585 277.4627 15.81947727  2828"
  },
  {
    "name": "STARLINK-37680",
    "noradId": "69240",
    "line1": "1 69240U 26117C   26167.23223147  .00253747  00000+0  11877-2 0  9997",
    "line2": "2 69240  53.1584 248.3880 0001312  73.2853 286.8314 15.82009256  2829"
  },
  {
    "name": "STARLINK-37742",
    "noradId": "69241",
    "line1": "1 69241U 26117D   26167.23044737  .00195816  00000+0  92348-3 0  9999",
    "line2": "2 69241  53.1584 248.3772 0001341  47.3576 312.7561 15.82009414  2825"
  },
  {
    "name": "STARLINK-37718",
    "noradId": "69242",
    "line1": "1 69242U 26117E   26167.22921313  .00207471  00000+0  97691-3 0  9990",
    "line2": "2 69242  53.1585 248.3675 0001036  59.3618 300.7508 15.82009754  2825"
  },
  {
    "name": "STARLINK-37735",
    "noradId": "69243",
    "line1": "1 69243U 26117F   26167.22910575  .00176140  00000+0  83220-3 0  9990",
    "line2": "2 69243  53.1588 248.3663 0001453  62.7037 297.4134 15.82028069  2829"
  },
  {
    "name": "STARLINK-37757",
    "noradId": "69244",
    "line1": "1 69244U 26117G   26167.22671299  .00177967  00000+0  84187-3 0  9999",
    "line2": "2 69244  53.1585 248.3515 0001827  42.6336 317.4829 15.81995648  2826"
  },
  {
    "name": "STARLINK-37767",
    "noradId": "69245",
    "line1": "1 69245U 26117H   26167.22244702  .00178417  00000+0  84321-3 0  9996",
    "line2": "2 69245  53.1583 248.3214 0001000  78.6067 281.5069 15.82014821  2827"
  },
  {
    "name": "STARLINK-35759",
    "noradId": "69246",
    "line1": "1 69246U 26117J   26167.22176146  .00180319  00000+0  85088-3 0  9998",
    "line2": "2 69246  53.1584 248.3169 0001018  75.8906 284.2231 15.82042525  2821"
  },
  {
    "name": "STARLINK-37238",
    "noradId": "69247",
    "line1": "1 69247U 26117K   26167.21731880  .00252346  00000+0  11801-2 0  9991",
    "line2": "2 69247  53.1582 248.2857 0001209  42.3233 317.7883 15.82031546  2823"
  },
  {
    "name": "STARLINK-37412",
    "noradId": "69248",
    "line1": "1 69248U 26117L   26167.21395163  .00203597  00000+0  95710-3 0  9998",
    "line2": "2 69248  53.1583 248.2637 0001136  64.7048 295.4093 15.82056111  2822"
  },
  {
    "name": "STARLINK-37398",
    "noradId": "69249",
    "line1": "1 69249U 26117M   26167.21758273  .00193876  00000+0  96260-3 0  9993",
    "line2": "2 69249  53.1590 248.2871 0001059  76.2801 283.8339 15.80902606  2821"
  },
  {
    "name": "STARLINK-37499",
    "noradId": "69250",
    "line1": "1 69250U 26117N   26167.27541082  .00153541  00000+0  72786-3 0  9991",
    "line2": "2 69250  53.1581 247.9345 0001263  55.5013 304.6129 15.82025283  2836"
  },
  {
    "name": "STARLINK-37489",
    "noradId": "69251",
    "line1": "1 69251U 26117P   26167.27364626  .00376844  00000+0  17316-2 0  9999",
    "line2": "2 69251  53.1582 247.9227 0001383 105.0054 255.1122 15.82077549  2831"
  },
  {
    "name": "STARLINK-37434",
    "noradId": "69252",
    "line1": "1 69252U 26117Q   26167.27067858  .00193929  00000+0  91286-3 0  9997",
    "line2": "2 69252  53.1576 247.9016 0001315  39.1354 320.9764 15.82055256  2830"
  },
  {
    "name": "STARLINK-37368",
    "noradId": "69253",
    "line1": "1 69253U 26117R   26167.26393473  .00271016  00000+0  12642-2 0  9994",
    "line2": "2 69253  53.1577 247.8561 0001610  31.5236 328.5883 15.82036192  2833"
  },
  {
    "name": "STARLINK-37517",
    "noradId": "69254",
    "line1": "1 69254U 26117S   26167.26261607  .00187302  00000+0  88297-3 0  9992",
    "line2": "2 69254  53.1575 247.8473 0000845  42.7213 317.3876 15.82042789  2839"
  },
  {
    "name": "STARLINK-37378",
    "noradId": "69255",
    "line1": "1 69255U 26117T   26167.26228373  .00199452  00000+0  93831-3 0  9995",
    "line2": "2 69255  53.1578 247.8446 0001389  34.0935 326.0177 15.82051939  2830"
  },
  {
    "name": "STARLINK-37396",
    "noradId": "69256",
    "line1": "1 69256U 26117U   26167.25983421  .00243831  00000+0  11420-2 0  9991",
    "line2": "2 69256  53.1572 247.8268 0000937  38.8485 321.2606 15.82021883  2836"
  },
  {
    "name": "STARLINK-37508",
    "noradId": "69257",
    "line1": "1 69257U 26117V   26167.26133010  .00192608  00000+0  95471-3 0  9998",
    "line2": "2 69257  53.1579 247.8364 0001519  26.2805 333.8294 15.80942367  2834"
  },
  {
    "name": "STARLINK-37276",
    "noradId": "69258",
    "line1": "1 69258U 26117W   26167.23437858  .00171156  00000+0  85248-3 0  9999",
    "line2": "2 69258  53.1577 247.6523 0001399  55.8874 304.2282 15.80901838  2835"
  },
  {
    "name": "STARLINK-37518",
    "noradId": "69259",
    "line1": "1 69259U 26117X   26167.23563113  .00120437  00000+0  60692-3 0  9996",
    "line2": "2 69259  53.1576 247.6623 0001208  92.9494 267.1667 15.80812965  2831"
  },
  {
    "name": "STARLINK-37478",
    "noradId": "69260",
    "line1": "1 69260U 26117Y   26167.23583273  .00186627  00000+0  92773-3 0  9995",
    "line2": "2 69260  53.1580 247.6637 0001011  64.0930 296.0197 15.80897626  2836"
  },
  {
    "name": "STARLINK-37506",
    "noradId": "69261",
    "line1": "1 69261U 26117Z   26167.23534364  .00167398  00000+0  83399-3 0  9991",
    "line2": "2 69261  53.1573 247.6589 0000930  84.2561 275.8568 15.80907490  2836"
  },
  {
    "name": "STARLINK-37503",
    "noradId": "69262",
    "line1": "1 69262U 26117AA  26167.23508647  .00164024  00000+0  81811-3 0  9997",
    "line2": "2 69262  53.1579 247.6572 0001215  56.4445 303.6694 15.80893179  2832"
  },
  {
    "name": "STARLINK-37502",
    "noradId": "69263",
    "line1": "1 69263U 26117AB  26167.23457204  .00174384  00000+0  86763-3 0  9991",
    "line2": "2 69263  53.1580 247.6535 0001461  56.7524 303.3639 15.80915111  2835"
  }
]